STARLINK-30080          
1 56705U 23067T   26057.06854970  .00002464  00000+0  19521-3 0  9996
2 56705  43.0045 324.5319 0001050 263.6772  96.3951 15.02968299154067
STARLINK-30079          
1 56706U 23067U   26057.20579104  .00001675  00000+0  13908-3 0  9992
2 56706  43.0029 336.7682 0001216 262.5510  97.5194 15.02531969153937
STARLINK-30070          
1 56707U 23067V   26057.25002315  .01307990  00000+0  51570-1 0  9998
2 56707  43.0000 335.6446 0002818 266.5276 347.1183 15.22205513  5837
STARLINK-30071          
1 56708U 23067W   26056.99636623  .00000970  00000+0  86879-4 0  9994
2 56708  43.0048 337.7755 0001192 266.5996  93.4710 15.02537817153901
STARLINK-30085          
1 56709U 23067X   26057.25002315  .00124230  00000+0  45816-2 0  9990
2 56709  43.0008 335.3627 0001297 271.0229 101.1348 15.26608745  5822
STARLINK-6197           
1 56767U 23078A   26057.28250917  .00041539  00000+0  21192-2 0  9993
2 56767  69.9926  19.3258 0007688 235.2014 124.8431 15.16503626150822
STARLINK-6198           
1 56768U 23078B   26057.25035646  .00001046  00000+0  95453-4 0  9993
2 56768  70.0018 353.1611 0002722 274.2947  85.7901 14.98330955151462
STARLINK-6342           
1 56770U 23078D   26057.25101756  .00002415  00000+0  21019-3 0  9999
2 56770  70.0017  33.3015 0002552 268.4409  91.6457 14.98318205150474
STARLINK-6275           
1 56772U 23078F   26057.24666169 -.00000060  00000+0  27878-5 0  9990
2 56772  70.0024  33.2853 0002200 268.9511  91.1396 14.98325937150479
STARLINK-6296           
1 56773U 23078G   26057.15000624  .00000817  00000+0  76268-4 0  9994
2 56773  70.0001 333.7229 0002775 270.2560  89.8281 14.98330294151938
STARLINK-6190           
1 56774U 23078H   26057.26754150 -.00001107  00000+0 -85006-4 0  9992
2 56774  70.0000  33.3567 0002744 287.5956  72.4903 14.98332746150473
STARLINK-6292           
1 56775U 23078J   26057.14583509  .00000508  00000+0  50404-4 0  9994
2 56775  70.0003 333.7063 0003068 279.3587  80.7225 14.98321137151937
STARLINK-6274           
1 56776U 23078K   26057.23786521 -.00000093  00000+0 -22880-8 0  9996
2 56776  70.0017 353.5117 0002668 273.3731  86.7123 14.98337419151453
STARLINK-5582           
1 56777U 23078L   26057.26315507  .00004405  00000+0  37693-3 0  9994
2 56777  70.0016  13.4721 0002575 272.7206  87.3658 14.98312227150968
STARLINK-6304           
1 56778U 23078M   26057.23368807  .00001159  00000+0  10491-3 0  9993
2 56778  70.0011 353.4976 0002935 273.6572  86.4251 14.98331079151459
STARLINK-6231           
1 56779U 23078N   26057.20866125  .00000973  00000+0  89359-4 0  9990
2 56779  70.0068 353.4074 0001011 295.6582  64.4472 14.98312442151443
