[{"OBJECT_NAME":"STARLINK-30080","OBJECT_ID":"2023-067T","EPOCH":"2026-02-26T01:38:42.694080","MEAN_MOTION":15.02968299,"ECCENTRICITY":0.000105,"INCLINATION":43.0045,"RA_OF_ASC_NODE":324.5319,"ARG_OF_PERICENTER":263.6772,"MEAN_ANOMALY":96.3951,"EPHEMERIS_TYPE":0,"CLASSIFICATION_TYPE":"U","NORAD_CAT_ID":56705,"ELEMENT_SET_NO":999,"REV_AT_EPOCH":15406,"BSTAR":0.00019520539,"MEAN_MOTION_DOT":2.464e-5,"MEAN_MOTION_DDOT":0},{"OBJECT_NAME":"STARLINK-30079","OBJECT_ID":"2023-067U","EPOCH":"2026-02-26T04:56:20.345856","MEAN_MOTION":15.02531969,"ECCENTRICITY":0.00012161,"INCLINATION":43.0029,"RA_OF_ASC_NODE":336.7682,"ARG_OF_PERICENTER":262.551,"MEAN_ANOMALY":97.5194,"EPHEMERIS_TYPE":0,"CLASSIFICATION_TYPE":"U","NORAD_CAT_ID":56706,"ELEMENT_SET_NO":999,"REV_AT_EPOCH":15393,"BSTAR":0.00013908379,"MEAN_MOTION_DOT":1.675e-5,"MEAN_MOTION_DDOT":0},{"OBJECT_NAME":"STARLINK-30070","OBJECT_ID":"2023-067V","EPOCH":"2026-02-26T06:00:02.000160","MEAN_MOTION":15.22205513,"ECCENTRICITY":0.00028185,"INCLINATION":43,"RA_OF_ASC_NODE":335.6446,"ARG_OF_PERICENTER":266.5276,"MEAN_ANOMALY":347.1183,"EPHEMERIS_TYPE":0,"CLASSIFICATION_TYPE":"U","NORAD_CAT_ID":56707,"ELEMENT_SET_NO":999,"REV_AT_EPOCH":583,"BSTAR":0.051570461,"MEAN_MOTION_DOT":0.0130799,"MEAN_MOTION_DDOT":0},{"OBJECT_NAME":"STARLINK-30071","OBJECT_ID":"2023-067W","EPOCH":"2026-02-25T23:54:46.042272","MEAN_MOTION":15.02537817,"ECCENTRICITY":0.0001192,"INCLINATION":43.0048,"RA_OF_ASC_NODE":337.7755,"ARG_OF_PERICENTER":266.5996,"MEAN_ANOMALY":93.471,"EPHEMERIS_TYPE":0,"CLASSIFICATION_TYPE":"U","NORAD_CAT_ID":56708,"ELEMENT_SET_NO":999,"REV_AT_EPOCH":15390,"BSTAR":8.6879e-5,"MEAN_MOTION_DOT":9.7e-6,"MEAN_MOTION_DDOT":0},{"OBJECT_NAME":"STARLINK-30085","OBJECT_ID":"2023-067X","EPOCH":"2026-02-26T06:00:02.000160","MEAN_MOTION":15.26608745,"ECCENTRICITY":0.00012973,"INCLINATION":43.0008,"RA_OF_ASC_NODE":335.3627,"ARG_OF_PERICENTER":271.0229,"MEAN_ANOMALY":101.1348,"EPHEMERIS_TYPE":0,"CLASSIFICATION_TYPE":"U","NORAD_CAT_ID":56709,"ELEMENT_SET_NO":999,"REV_AT_EPOCH":582,"BSTAR":0.0045816109,"MEAN_MOTION_DOT":0.0012423,"MEAN_MOTION_DDOT":0},{"OBJECT_NAME":"STARLINK-6197","OBJECT_ID":"2023-078A","EPOCH":"2026-02-26T06:46:48.792288","MEAN_MOTION":15.16503626,"ECCENTRICITY":0.00076887,"INCLINATION":69.9926,"RA_OF_ASC_NODE":19.3258,"ARG_OF_PERICENTER":235.2014,"MEAN_ANOMALY":124.8431,"EPHEMERIS_TYPE":0,"CLASSIFICATION_TYPE":"U","NORAD_CAT_ID":56767,"ELEMENT_SET_NO":999,"REV_AT_EPOCH":15082,"BSTAR":0.0021192117,"MEAN_MOTION_DOT":0.00041539,"MEAN_MOTION_DDOT":0},{"OBJECT_NAME":"STARLINK-6198","OBJECT_ID":"2023-078B","EPOCH":"2026-02-26T06:00:30.798144","MEAN_MOTION":14.98330955,"ECCENTRICITY":0.00027228,"INCLINATION":70.0018,"RA_OF_ASC_NODE":353.1611,"ARG_OF_PERICENTER":274.2947,"MEAN_ANOMALY":85.7901,"EPHEMERIS_TYPE":0,"CLASSIFICATION_TYPE":"U","NORAD_CAT_ID":56768,"ELEMENT_SET_NO":999,"REV_AT_EPOCH":15146,"BSTAR":9.5452835e-5,"MEAN_MOTION_DOT":1.046e-5,"MEAN_MOTION_DDOT":0},{"OBJECT_NAME":"STARLINK-6342","OBJECT_ID":"2023-078D","EPOCH":"2026-02-26T06:01:27.917184","MEAN_MOTION":14.98318205,"ECCENTRICITY":0.00025529,"INCLINATION":70.0017,"RA_OF_ASC_NODE":33.3015,"ARG_OF_PERICENTER":268.4409,"MEAN_ANOMALY":91.6457,"EPHEMERIS_TYPE":0,"CLASSIFICATION_TYPE":"U","NORAD_CAT_ID":56770,"ELEMENT_SET_NO":999,"REV_AT_EPOCH":15047,"BSTAR":0.00021019146,"MEAN_MOTION_DOT":2.415e-5,"MEAN_MOTION_DDOT":0},{"OBJECT_NAME":"STARLINK-6275","OBJECT_ID":"2023-078F","EPOCH":"2026-02-26T05:55:11.570016","MEAN_MOTION":14.98325937,"ECCENTRICITY":0.00022008,"INCLINATION":70.0024,"RA_OF_ASC_NODE":33.2853,"ARG_OF_PERICENTER":268.9511,"MEAN_ANOMALY":91.1396,"EPHEMERIS_TYPE":0,"CLASSIFICATION_TYPE":"U","NORAD_CAT_ID":56772,"ELEMENT_SET_NO":999,"REV_AT_EPOCH":15047,"BSTAR":2.787817e-6,"MEAN_MOTION_DOT":-6.0e-7,"MEAN_MOTION_DDOT":0},{"OBJECT_NAME":"STARLINK-6296","OBJECT_ID":"2023-078G","EPOCH":"2026-02-26T03:36:00.539136","MEAN_MOTION":14.98330294,"ECCENTRICITY":0.00027751,"INCLINATION":70.0001,"RA_OF_ASC_NODE":333.7229,"ARG_OF_PERICENTER":270.256,"MEAN_ANOMALY":89.8281,"EPHEMERIS_TYPE":0,"CLASSIFICATION_TYPE":"U","NORAD_CAT_ID":56773,"ELEMENT_SET_NO":999,"REV_AT_EPOCH":15193,"BSTAR":7.6267544e-5,"MEAN_MOTION_DOT":8.17e-6,"MEAN_MOTION_DDOT":0},{"OBJECT_NAME":"STARLINK-6190","OBJECT_ID":"2023-078H","EPOCH":"2026-02-26T06:25:15.585600","MEAN_MOTION":14.98332746,"ECCENTRICITY":0.00027441,"INCLINATION":70,"RA_OF_ASC_NODE":33.3567,"ARG_OF_PERICENTER":287.5956,"MEAN_ANOMALY":72.4903,"EPHEMERIS_TYPE":0,"CLASSIFICATION_TYPE":"U","NORAD_CAT_ID":56774,"ELEMENT_SET_NO":999,"REV_AT_EPOCH":15047,"BSTAR":-8.5006493e-5,"MEAN_MOTION_DOT":-1.107e-5,"MEAN_MOTION_DDOT":0},{"OBJECT_NAME":"STARLINK-6292","OBJECT_ID":"2023-078J","EPOCH":"2026-02-26T03:30:00.151776","MEAN_MOTION":14.98321137,"ECCENTRICITY":0.00030683,"INCLINATION":70.0003,"RA_OF_ASC_NODE":333.7063,"ARG_OF_PERICENTER":279.3587,"MEAN_ANOMALY":80.7225,"EPHEMERIS_TYPE":0,"CLASSIFICATION_TYPE":"U","NORAD_CAT_ID":56775,"ELEMENT_SET_NO":999,"REV_AT_EPOCH":15193,"BSTAR":5.0404373e-5,"MEAN_MOTION_DOT":5.08e-6,"MEAN_MOTION_DDOT":0},{"OBJECT_NAME":"STARLINK-6274","OBJECT_ID":"2023-078K","EPOCH":"2026-02-26T05:42:31.554144","MEAN_MOTION":14.98337419,"ECCENTRICITY":0.00026684,"INCLINATION":70.0017,"RA_OF_ASC_NODE":353.5117,"ARG_OF_PERICENTER":273.3731,"MEAN_ANOMALY":86.7123,"EPHEMERIS_TYPE":0,"CLASSIFICATION_TYPE":"U","NORAD_CAT_ID":56776,"ELEMENT_SET_NO":999,"REV_AT_EPOCH":15145,"BSTAR":-2.288e-9,"MEAN_MOTION_DOT":-9.3e-7,"MEAN_MOTION_DDOT":0},{"OBJECT_NAME":"STARLINK-5582","OBJECT_ID":"2023-078L","EPOCH":"2026-02-26T06:18:56.598048","MEAN_MOTION":14.98312227,"ECCENTRICITY":0.00025752,"INCLINATION":70.0016,"RA_OF_ASC_NODE":13.4721,"ARG_OF_PERICENTER":272.7206,"MEAN_ANOMALY":87.3658,"EPHEMERIS_TYPE":0,"CLASSIFICATION_TYPE":"U","NORAD_CAT_ID":56777,"ELEMENT_SET_NO":999,"REV_AT_EPOCH":15096,"BSTAR":0.00037692989,"MEAN_MOTION_DOT":4.405e-5,"MEAN_MOTION_DDOT":0},{"OBJECT_NAME":"STARLINK-6304","OBJECT_ID":"2023-078M","EPOCH":"2026-02-26T05:36:30.649248","MEAN_MOTION":14.98331079,"ECCENTRICITY":0.00029355,"INCLINATION":70.0011,"RA_OF_ASC_NODE":353.4976,"ARG_OF_PERICENTER":273.6572,"MEAN_ANOMALY":86.4251,"EPHEMERIS_TYPE":0,"CLASSIFICATION_TYPE":"U","NORAD_CAT_ID":56778,"ELEMENT_SET_NO":999,"REV_AT_EPOCH":15145,"BSTAR":0.00010491401,"MEAN_MOTION_DOT":1.159e-5,"MEAN_MOTION_DDOT":0},{"OBJECT_NAME":"STARLINK-6231","OBJECT_ID":"2023-078N","EPOCH":"2026-02-26T05:00:28.332000","MEAN_MOTION":14.98312442,"ECCENTRICITY":0.00010113,"INCLINATION":70.0068,"RA_OF_ASC_NODE":353.4074,"ARG_OF_PERICENTER":295.6582,"MEAN_ANOMALY":64.4472,"EPHEMERIS_TYPE":0,"CLASSIFICATION_TYPE":"U","NORAD_CAT_ID":56779,"ELEMENT_SET_NO":999,"REV_AT_EPOCH":15144,"BSTAR":8.9358647e-5,"MEAN_MOTION_DOT":9.73e-6,"MEAN_MOTION_DDOT":0}]
